NORAD_CAT_ID,OBJECT_NAME,OBJECT_TYPE,EPOCH,MEAN_MOTION,ECCENTRICITY,INCLINATION,RA_OF_ASC_NODE,ARG_OF_PERICENTER,MEAN_ANOMALY,BSTAR,MEAN_MOTION_DOT,MEAN_MOTION_DDOT,TLE_LINE0,TLE_LINE1,TLE_LINE2,SEMIMAJOR_AXIS,PERIOD,APOGEE,PERIGEE,DECAYED
52105.0,STARLINK-3706,PAYLOAD,2022-05-02 14:00:01,15.65308681,0.0001129,53.2176,284.5315,73.4873,39.0663,-0.0077185,-0.00717168,0.0,0 STARLINK-3706,1 52105U 22029T   22122.58334491 -.00717168  00000-0 -77185-2 0  9996,2 52105  53.2176 284.5315 0001129  73.4873  39.0663 15.65308681  3690,6750.488,91.995,373.115,371.591,0.0
52105.0,STARLINK-3706,PAYLOAD,2022-05-02 22:00:01,15.64794187,0.0001209,53.2172,282.9013,82.6486,109.1059,-0.0077826,-0.00709071,0.0,0 STARLINK-3706,1 52105U 22029T   22122.91668981 -.00709071  00000-0 -77826-2 0  9993,2 52105  53.2172 282.9013 0001209  82.6486 109.1059 15.64794187  8281,6751.968000000003,92.025,374.649,373.016,0.0
52105.0,STARLINK-3706,PAYLOAD,2022-05-03 14:00:01,15.63779539,0.0001072,53.2175,279.6412,76.9441,271.1757,-0.0082152,-0.00717982,0.0,0 STARLINK-3706,1 52105U 22029T   22123.58334491 -.00717982  00000-0 -82152-2 0  9991,2 52105  53.2175 279.6412 0001072  76.9441 271.1757 15.63779539  3705,6754.888000000001,92.085,377.477,376.029,0.0
52105.0,STARLINK-3706,PAYLOAD,2022-05-03 20:00:01,15.63396078,0.0001121,53.2174,278.4218,108.7023,207.4469,-0.0083172999999999,-0.00716114,0.0,0 STARLINK-3706,1 52105U 22029T   22123.83334491 -.00716114  00000-0 -83173-2 0  9999,2 52105  53.2174 278.4218 0001121 108.7023 207.4469 15.63396078  8429,6755.993,92.107,378.615,377.1,0.0
52105.0,STARLINK-3706,PAYLOAD,2022-05-03 22:00:00,15.63267001,0.0001019,53.2171,278.0148,101.1149,324.3016,-0.0083215,-0.00713076,0.0,0 STARLINK-3706,1 52105U 22029T   22123.91667824 -.00713076  00000-0 -83215-2 0  9998,2 52105  53.2171 278.0148 0001019 101.1149 324.3016 15.63267001  3702,6756.364000000001,92.115,378.918,377.541,0.0
52105.0,STARLINK-3706,PAYLOAD,2022-05-04 14:00:01,15.62246989,0.0001273,53.2176,274.7622,75.0219,143.1505,-0.0086636,-0.00713207,0.0,0 STARLINK-3706,1 52105U 22029T   22124.58334491 -.00713207  00000-0 -86636-2 0  9999,2 52105  53.2176 274.7622 0001273  75.0219 143.1505 15.62246989  3707,6759.305,92.175,382.03,380.31,0.0
52105.0,STARLINK-3706,PAYLOAD,2022-05-04 20:00:01,15.61862158,0.0001222,53.2176,273.5452,90.9109,93.978,-0.0087428,-0.00709302,0.0,0 STARLINK-3706,1 52105U 22029T   22124.83335648 -.00709302  00000-0 -87428-2 0  9993,2 52105  53.2176 273.5452 0001222  90.9109  93.9780 15.61862158  8582,6760.415,92.198,383.106,381.454,0.0
52105.0,STARLINK-3706,PAYLOAD,2022-05-04 22:00:01,15.61737755,0.0001117,53.2173,273.1391,98.4803,195.2143,-0.0088412,-0.0071342,0.0,0 STARLINK-3706,1 52105U 22029T   22124.91668981 -.00713420  00000-0 -88412-2 0  9991,2 52105  53.2173 273.1391 0001117  98.4803 195.2143 15.61737755  3706,6760.774,92.205,383.394,381.884,0.0
52105.0,STARLINK-3706,PAYLOAD,2022-05-05 14:00:01,15.60718446,0.0001167,53.2175,269.8945,64.2546,18.4537,-0.0092253,-0.00715329,0.0,0 STARLINK-3706,1 52105U 22029T   22125.58334491 -.00715329  00000-0 -92253-2 0  9999,2 52105  53.2175 269.8945 0001167  64.2546  18.4537 15.60718446  3714,6763.718000000003,92.265,386.372,384.793,0.0
52105.0,STARLINK-3706,PAYLOAD,2022-05-05 20:00:01,15.60333658,0.0001022,53.2173,268.6801,88.8881,319.1577,-0.0093082,-0.00711421,0.0,0 STARLINK-3706,1 52105U 22029T   22125.83335648 -.00711421  00000-0 -93082-2 0  9992,2 52105  53.2173 268.6801 0001022  88.8881 319.1577 15.60333658  8745,6764.83,92.288,387.386,386.003,0.0
52105.0,STARLINK-3706,PAYLOAD,2022-05-05 22:00:00,15.60208335,0.0001164,53.2171,268.2749,85.4481,70.8795,-0.009399,-0.00714636,0.0,0 STARLINK-3706,1 52105U 22029T   22125.91667824 -.00714636  00000-0 -93990-2 0  9994,2 52105  53.2171 268.2749 0001164  85.4481  70.8795 15.60208335  3691,6765.191999999999,92.295,387.844,386.269,0.0
52105.0,STARLINK-3706,PAYLOAD,2022-05-06 14:00:01,15.59188004,0.0001227,53.2174,265.0376,68.7637,232.966,-0.0097635,-0.00713904,0.0,0 STARLINK-3706,1 52105U 22029T   22126.58334491 -.00713904  00000-0 -97635-2 0  9996,2 52105  53.2174 265.0376 0001227  68.7637 232.9660 15.59188004  3726,6768.143,92.356,390.838,389.177,0.0
52105.0,STARLINK-3706,PAYLOAD,2022-05-06 22:00:00,15.58678915,0.0001124,53.2173,263.4217,59.6618,313.8484,-0.0099622,-0.00714356,0.0,0 STARLINK-3706,1 52105U 22029T   22126.91667824 -.00714356  00000-0 -99622-2 0  9992,2 52105  53.2173 263.4217 0001124  59.6618 313.8484 15.58678915  8918,6769.6169999999975,92.386,392.242,390.721,0.0
52105.0,STARLINK-3706,PAYLOAD,2022-05-07 14:00:01,15.5765669,0.00014,53.2174,260.1918,57.9864,97.2503,-0.010314,-0.00711743,0.0,0 STARLINK-3706,1 52105U 22029T   22127.58334491 -.00711743  00000-0 -10314-1 0  9994,2 52105  53.2174 260.1918 0001400  57.9864  97.2503 15.57656690  3704,6772.578,92.447,395.391,393.495,0.0
52105.0,STARLINK-3706,PAYLOAD,2022-05-07 22:00:00,15.57149777,0.0001222,53.2171,258.5792,85.4485,139.73,-0.010592,-0.00716612,0.0,0 STARLINK-3706,1 52105U 22029T   22127.91667824 -.00716612  00000-0 -10592-1 0  9998,2 52105  53.2171 258.5792 0001222  85.4485 139.7300 15.57149777  9064,6774.0480000000025,92.477,396.74,395.085,0.0
52105.0,STARLINK-3706,PAYLOAD,2022-05-08 14:00:01,15.56129109,0.0001276,53.2174,255.3573,52.2576,310.9692,-0.010977,-0.00714947,0.0,0 STARLINK-3706,1 52105U 22029T   22128.58334491 -.00714947  00000-0 -10977-1 0  9999,2 52105  53.2174 255.3573 0001276  52.2576 310.9692 15.56129109  3697,6777.009,92.537,399.739,398.01,0.0
52105.0,STARLINK-3706,PAYLOAD,2022-05-08 22:00:00,15.55618678,0.0001084,53.2171,253.7483,73.9288,357.4027,-0.011165,-0.00713581,0.0,0 STARLINK-3706,1 52105U 22029T   22128.91667824 -.00713581  00000-0 -11165-1 0  9998,2 52105  53.2171 253.7483 0001084  73.9288 357.4027 15.55618678  3706,6778.4919999999975,92.568,401.092,399.622,0.0
52105.0,STARLINK-3706,PAYLOAD,2022-05-09 06:00:00,15.55109123,0.0001301,53.2171,252.1386,59.6147,79.2102,-0.011411,-0.00715508,0.0,0 STARLINK-3706,1 52105U 22029T   22129.25001157 -.00715508  00000-0 -11411-1 0  9992,2 52105  53.2171 252.1386 0001301  59.6147  79.2102 15.55109123  9279,6779.972,92.598,402.72,400.955,0.0
52105.0,STARLINK-3706,PAYLOAD,2022-05-09 14:00:01,15.54596547,0.0001471,53.2172,250.5336,57.3189,148.45,-0.011547,-0.00710898,0.0,0 STARLINK-3706,1 52105U 22029T   22129.58335648 -.00710898  00000-0 -11547-1 0  9990,2 52105  53.2172 250.5336 0001471  57.3189 148.4500 15.54596547  3708,6781.4630000000025,92.629,404.325,402.33,0.0
52105.0,STARLINK-3706,PAYLOAD,2022-05-09 22:00:00,15.5408999,0.0001195,53.2172,248.9281,81.3222,190.647,-0.01186,-0.00716142,0.0,0 STARLINK-3706,1 52105U 22029T   22129.91667824 -.00716142  00000-0 -11860-1 0  9997,2 52105  53.2172 248.9281 0001195  81.3222 190.6470 15.54089990  3698,6782.936,92.659,405.612,403.991,0.0
52105.0,STARLINK-3706,PAYLOAD,2022-05-10 08:00:01,15.53378776,0.0001416999999999,53.2167,246.9229,55.0997,28.8763,-0.010288,-0.00613265,0.0,0 STARLINK-3706,1 52105U 22029T   22130.33334491 -.00613265  00000-0 -10288-1 0  9991,2 52105  53.2167 246.9229 0001417  55.0997  28.8763 15.53378776  9444,6785.005999999999,92.701,407.833,405.91,0.0
52105.0,STARLINK-3706,PAYLOAD,2022-05-10 14:00:01,15.53069626,0.0001351999999999,53.2175,245.7213,48.7993,353.8643,-0.012292,-0.00715137,0.0,0 STARLINK-3706,1 52105U 22029T   22130.58334491 -.00715137  00000-0 -12292-1 0  9996,2 52105  53.2175 245.7213 0001352  48.7993 353.8643 15.53069626  3696,6785.906999999997,92.72,408.689,406.854,0.0
52105.0,STARLINK-3706,PAYLOAD,2022-05-10 19:59:43,15.53442454,0.0001088,53.2129,244.538,21.9984,338.1074,-0.0056225,-0.00347474,0.0,0 STARLINK-3706,1 52105U 22029T   22130.83314690 -.00347474  00000-0 -56225-2 0  9993,2 52105  53.2129 244.5380 0001088  21.9984 338.1074 15.53442454  9522,6784.821,92.697,407.424,405.948,0.0
52105.0,STARLINK-3706,PAYLOAD,2022-05-11 22:00:00,15.51029705,0.0001224,53.2172,239.3211,70.6611,226.0386,-0.013232,-0.0072422,0.0,0 STARLINK-3706,1 52105U 22029T   22131.91667824 -.00724220  00000-0 -13232-1 0  9991,2 52105  53.2172 239.3211 0001224  70.6611 226.0386 15.51029705  9681,6791.855,92.842,414.552,412.889,0.0
52105.0,STARLINK-3706,PAYLOAD,2022-05-12 14:00:01,15.49906696,0.0001416,53.2173,236.1309,52.2269,7.8222,-0.00063264,-0.00036219,0.0,0 STARLINK-3706,1 52105U 22029T   22132.58334491 -.00036219  00000-0 -63264-3 0  9992,2 52105  53.2173 236.1309 0001416  52.2269   7.8222 15.49906696  1308,6795.136,92.909,417.963,416.039,0.0
52105.0,STARLINK-3706,PAYLOAD,2022-05-12 20:00:01,15.49887259,0.0001214,53.2172,234.9359,63.738,312.0054,-3.5013000000000005e-05,-2.438e-05,0.0,0 STARLINK-3706,1 52105U 22029T   22132.83334491 -.00002438  00000-0 -35013-4 0  9998,2 52105  53.2172 234.9359 0001214  63.7380 312.0054 15.49887259  9838,6795.193,92.91,417.883,416.233,0.0
52105.0,STARLINK-3706,PAYLOAD,2022-05-12 22:00:00,15.49886926,0.0001249,53.2172,234.5369,62.6763,58.2965,-4.2261e-05,-2.849e-05,0.0,0 STARLINK-3706,1 52105U 22029T   22132.91667824 -.00002849  00000-0 -42261-4 0  9995,2 52105  53.2172 234.5369 0001249  62.6763  58.2965 15.49886926  1300,6795.194,92.91,417.907,416.21,0.0
52105.0,STARLINK-3706,PAYLOAD,2022-05-13 06:00:00,15.49952465,0.0001478,53.2133,232.9516,61.3897,120.6647,-0.0010507,-0.00059774,0.0,0 STARLINK-3706,1 52105U 22029T   22133.25001157 -.00059774  00000-0 -10507-2 0  9999,2 52105  53.2133 232.9516 0001478  61.3897 120.6647 15.49952465  9896,6795.002,92.906,417.871,415.86300000000006,0.0
52105.0,STARLINK-3706,PAYLOAD,2022-05-13 14:00:01,15.49881984,0.0001594,53.2135,231.3604,50.264,192.7627,0.00022126,0.00012124,0.0,0 STARLINK-3706,1 52105U 22029T   22133.58334491  .00012124  00000-0  22126-3 0  9992,2 52105  53.2135 231.3604 0001594  50.2640 192.7627 15.49881984  1304,6795.208000000001,92.91,418.156,415.99,0.0
